NORAD_CAT_ID,OBJECT_NAME,OBJECT_TYPE,EPOCH,MEAN_MOTION,ECCENTRICITY,INCLINATION,RA_OF_ASC_NODE,ARG_OF_PERICENTER,MEAN_ANOMALY,BSTAR,MEAN_MOTION_DOT,MEAN_MOTION_DDOT,TLE_LINE0,TLE_LINE1,TLE_LINE2,SEMIMAJOR_AXIS,PERIOD,APOGEE,PERIGEE,DECAYED
55408.0,STARLINK-5092,PAYLOAD,2023-08-20 09:44:31,14.99297924,0.0003472,69.9987,255.2605,268.3722,91.704,2.2074e-05,1.76e-06,0.0,0 STARLINK-5092,1 55408U 23014T   23232.40591857  .00000176  00000-0  22074-4 0  9996,2 55408  69.9987 255.2605 0003472 268.3722  91.7040 14.99297924 31464,6947.201,96.045,571.478,566.654,0.0
55408.0,STARLINK-5092,PAYLOAD,2023-08-21 09:45:36,14.99301892,0.0003493,69.9987,252.7334,268.7342,91.3417,1.9336e-05,1.43e-06,0.0,0 STARLINK-5092,1 55408U 23014T   23233.40666801  .00000143  00000-0  19336-4 0  9990,2 55408  69.9987 252.7334 0003493 268.7342  91.3417 14.99301892 31611,6947.189,96.045,571.481,566.627,0.0
55408.0,STARLINK-5092,PAYLOAD,2023-08-22 09:46:41,14.99299267,0.0003425,69.9989,250.2064,267.3821,92.6947,1.4013e-05,7.8e-07,0.0,0 STARLINK-5092,1 55408U 23014T   23234.40742149  .00000078  00000-0  14013-4 0  9995,2 55408  69.9989 250.2064 0003425 267.3821  92.6947 14.99299267 31768,6947.197,96.045,571.442,566.683,0.0
55408.0,STARLINK-5092,PAYLOAD,2023-08-23 11:23:50,14.99303301,0.0003472,69.9988,247.5109,268.2477,91.8285,-1.3838e-05,-2.63e-06,0.0,0 STARLINK-5092,1 55408U 23014T   23235.47488742 -.00000263  00000-0 -13838-4 0  9991,2 55408  69.9988 247.5109 0003472 268.2477  91.8285 14.99303301 31924,6947.185,96.045,571.462,566.638,0.0
55408.0,STARLINK-5092,PAYLOAD,2023-08-24 09:48:51,14.99299096,0.0003432,69.999,245.1522,268.2173,91.8594,-2.0112e-06,-1.19e-06,0.0,0 STARLINK-5092,1 55408U 23014T   23236.40892477 -.00000119  00000-0 -20112-5 0  9993,2 55408  69.9990 245.1522 0003432 268.2173  91.8594 14.99299096 33008,6947.198,96.045,571.447,566.678,0.0
55408.0,STARLINK-5092,PAYLOAD,2023-08-25 00:13:30,14.99299865,0.000342,69.999,243.636,268.4345,91.6423,-1.6497e-05,-2.96e-06,0.0,0 STARLINK-5092,1 55408U 23014T   23237.00937608 -.00000296  00000-0 -16497-4 0  9992,2 55408  69.9990 243.6360 0003420 268.4345  91.6423 14.99299865 32159,6947.195,96.045,571.436,566.684,0.0
55408.0,STARLINK-5092,PAYLOAD,2023-08-25 09:49:56,14.99300269,0.0003468,69.9988,242.6251,269.833,90.2432,-1.3529e-05,-2.59e-06,0.0,0 STARLINK-5092,1 55408U 23014T   23237.40967664 -.00000259  00000-0 -13529-4 0  9993,2 55408  69.9988 242.6251 0003468 269.8330  90.2432 14.99300269 33152,6947.194,96.045,571.468,566.65,0.0
55408.0,STARLINK-5092,PAYLOAD,2023-08-26 00:14:34,14.99300994,0.0003511,69.9987,241.1088,269.7957,90.28,1.8732e-05,1.35e-06,0.0,0 STARLINK-5092,1 55408U 23014T   23238.01012621  .00000135  00000-0  18732-4 0  9997,2 55408  69.9987 241.1088 0003511 269.7957  90.2800 14.99300994 32306,6947.192,96.045,571.496,566.618,0.0
55408.0,STARLINK-5092,PAYLOAD,2023-08-26 09:51:22,14.99043969,0.0003674,69.9986,240.0988,269.4211,90.6528,-0.0027074,-0.00032849,0.0,0 STARLINK-5092,1 55408U 23014T   23238.41067193 -.00032849  00000-0 -27074-2 0  9991,2 55408  69.9986 240.0988 0003674 269.4211  90.6528 14.99043969 32365,6947.986,96.061,572.404,567.298,0.0
55408.0,STARLINK-5092,PAYLOAD,2023-08-27 01:52:44,14.98731543,0.0003392,69.9985,238.4155,269.8438,90.2333,-0.0053488,-0.00063999,0.0,0 STARLINK-5092,1 55408U 23014T   23239.07828717 -.00063999  00000-0 -53488-2 0  9999,2 55408  69.9985 238.4155 0003392 269.8438  90.2333 14.98731543 32465,6948.951,96.081,573.174,568.459,0.0
55408.0,STARLINK-5092,PAYLOAD,2023-08-27 09:53:17,14.9869994,0.0003439,69.9986,237.574,268.7535,91.323,-0.0051907,-0.00062076,0.0,0 STARLINK-5092,1 55408U 23014T   23239.41200854 -.00062076  00000-0 -51907-2 0  9992,2 55408  69.9986 237.5740 0003439 268.7535  91.3230 14.98699940 33456,6949.049,96.083,573.304,568.524,0.0
55408.0,STARLINK-5092,PAYLOAD,2023-08-27 13:05:31,14.98687183,0.0003492,69.9987,237.2379,269.5308,90.5451,-0.0051206,-0.00061227,0.0,0 STARLINK-5092,1 55408U 23014T   23239.54550071 -.00061227  00000-0 -51206-2 0  9994,2 55408  69.9987 237.2379 0003492 269.5308  90.5451 14.98687183 33472,6949.089,96.084,573.38,568.527,0.0
55408.0,STARLINK-5092,PAYLOAD,2023-08-28 01:54:27,14.98633223,0.0003405,69.999,235.8913,266.4194,93.6575,-0.0047626,-0.00056908,0.0,0 STARLINK-5092,1 55408U 23014T   23240.07948654 -.00056908  00000-0 -47626-2 0  9993,2 55408  69.9990 235.8913 0003405 266.4194  93.6575 14.98633223 32619,6949.255,96.088,573.487,568.754,0.0
55408.0,STARLINK-5092,PAYLOAD,2023-08-28 08:18:56,14.98607473,0.0003409,69.9989,235.2178,264.7913,95.2857,-0.0045186,-0.00053983,0.0,0 STARLINK-5092,1 55408U 23014T   23240.34648980 -.00053983  00000-0 -45186-2 0  9991,2 55408  69.9989 235.2178 0003409 264.7913  95.2857 14.98607473 32651,6949.335,96.089,573.569,568.831,0.0
55408.0,STARLINK-5092,PAYLOAD,2023-08-28 13:07:19,14.98578817,0.000368,69.9989,234.7126,275.3677,84.7062,-0.0041573,-0.00049669,0.0,0 STARLINK-5092,1 55408U 23014T   23240.54674993 -.00049669  00000-0 -41573-2 0  9998,2 55408  69.9989 234.7126 0003680 275.3677  84.7062 14.98578817 32687,6949.424,96.091,573.846,568.731,0.0
55408.0,STARLINK-5092,PAYLOAD,2023-08-29 01:56:26,14.98325543,0.0003128,69.9989,233.3662,269.2859,90.7941,7.0204e-05,7.45e-06,0.0,0 STARLINK-5092,1 55408U 23014T   23241.08086461  .00000745  00000-0  70204-4 0  9990,2 55408  69.9989 233.3662 0003128 269.2859  90.7941 14.98325543 32766,6950.207,96.107,574.246,569.898,0.0
55408.0,STARLINK-5092,PAYLOAD,2023-08-29 22:00:00,14.98323552,0.0003062,69.9999,231.2591,266.3255,280.8481,0.0034598,0.00041427,0.0,0 STARLINK-5092,1 55408U 23014T   23241.91667824  .00041427  00000-0  34598-2 0  9996,2 55408  69.9999 231.2591 0003062 266.3255 280.8481 14.98323552  5804,6950.213,96.107,574.206,569.95,0.0
55408.0,STARLINK-5092,PAYLOAD,2023-08-30 00:22:19,14.98332237,0.0003119,69.9989,231.0097,269.4777,90.6024,8.3287e-05,9.01e-06,0.0,0 STARLINK-5092,1 55408U 23014T   23242.01550039  .00000901  00000-0  83287-4 0  9990,2 55408  69.9989 231.0097 0003119 269.4777  90.6024 14.98332237 32909,6950.186,96.107,574.219,569.883,0.0
55408.0,STARLINK-5092,PAYLOAD,2023-08-30 16:23:39,14.98336145,0.0002944,69.9998,229.3267,268.2114,91.8708,-5.6424e-05,-7.66e-06,0.0,0 STARLINK-5092,1 55408U 23014T   23242.68310001 -.00000766  00000-0 -56424-4 0  9990,2 55408  69.9998 229.3267 0002944 268.2114  91.8708 14.98336145 33944,6950.174,96.107,574.085,569.993,0.0
55408.0,STARLINK-5092,PAYLOAD,2023-08-31 22:50:12,14.98333844,0.0002961,70.0002,226.1289,268.0786,92.0034,-1.8034e-05,-3.08e-06,0.0,0 STARLINK-5092,1 55408U 23014T   23243.95153738 -.00000308  00000-0 -18034-4 0  9990,2 55408  70.0002 226.1289 0002961 268.0786  92.0034 14.98333844 33199,6950.181,96.107,574.104,569.988,0.0
55408.0,STARLINK-5092,PAYLOAD,2023-09-01 05:14:45,14.98330025,0.0003527,69.9998,225.4573,273.3885,86.6871,-5.699e-07,-1e-06,0.0,0 STARLINK-5092,1 55408U 23014T   23244.21857845 -.00000100  00000-0 -56990-6 0  9995,2 55408  69.9998 225.4573 0003527 273.3885  86.6871 14.98330025 34171,6950.193,96.107,574.509,569.606,0.0
55408.0,STARLINK-5092,PAYLOAD,2023-09-01 16:27:39,14.9835759,0.0004137,69.9992,224.2786,271.6113,88.4573,-0.00018658,-2.32e-05,0.0,0 STARLINK-5092,1 55408U 23014T   23244.68587874 -.00002320  00000-0 -18658-3 0  9990,2 55408  69.9992 224.2786 0004137 271.6113  88.4573 14.98357590 33300,6950.108,96.105,574.848,569.097,0.0
55408.0,STARLINK-5092,PAYLOAD,2023-09-01 22:52:13,14.98327112,0.0004469,69.9979,223.6051,265.9426,94.1223,0.0001053,1.163e-05,0.0,0 STARLINK-5092,1 55408U 23014T   23244.95293112  .00001163  00000-0  10530-3 0  9992,2 55408  69.9979 223.6051 0004469 265.9426  94.1223 14.98327112 33341,6950.202,96.107,575.173,568.961,0.0
55408.0,STARLINK-5092,PAYLOAD,2023-09-02 05:16:45,14.98333099,0.0003081,69.9982,222.9304,269.759,90.3215,3.0434e-05,2.7e-06,0.0,0 STARLINK-5092,1 55408U 23014T   23245.21997319  .00000270  00000-0  30434-4 0  9996,2 55408  69.9982 222.9304 0003081 269.7590  90.3215 14.98333099 34320,6950.183,96.107,574.19,569.907,0.0
55408.0,STARLINK-5092,PAYLOAD,2023-09-02 16:29:42,14.98332447,0.00031,69.9986,221.7522,270.0156,90.0647,1.9653e-05,1.41e-06,0.0,0 STARLINK-5092,1 55408U 23014T   23245.68729296  .00000141  00000-0  19653-4 0  9991,2 55408  69.9986 221.7522 0003100 270.0156  90.0647 14.98332447 34397,6950.185,96.107,574.205,569.896,0.0
55408.0,STARLINK-5092,PAYLOAD,2023-09-03 00:30:22,14.98330876,0.0003073,69.9986,220.9106,269.8265,90.2542,9.6514e-07,-8.2e-07,0.0,0 STARLINK-5092,1 55408U 23014T   23246.02109399 -.00000082  00000-0  96514-6 0  9994,2 55408  69.9986 220.9106 0003073 269.8265  90.2542 14.98330876 33504,6950.19,96.107,574.191,569.919,0.0
55408.0,STARLINK-5092,PAYLOAD,2023-09-03 08:31:02,14.98335365,0.000303,69.9996,220.0691,270.0963,89.9849,4.4077e-05,4.33e-06,0.0,0 STARLINK-5092,1 55408U 23014T   23246.35488944  .00000433  00000-0  44077-4 0  9990,2 55408  69.9996 220.0691 0003030 270.0963  89.9849 14.98335365 34499,6950.176,96.107,574.147,569.935,0.0
55408.0,STARLINK-5092,PAYLOAD,2023-09-04 08:33:04,14.9832719,0.0002854,70.0001,217.5443,270.6789,89.4043,-6.598e-05,-8.8e-06,0.0,0 STARLINK-5092,1 55408U 23014T   23247.35629834 -.00000880  00000-0 -65980-4 0  9990,2 55408  70.0001 217.5443 0002854 270.6789  89.4043 14.98327190 33701,6950.202,96.107,574.05,570.083,0.0
55408.0,STARLINK-5092,PAYLOAD,2023-09-04 14:57:36,14.98327583,0.000284,70.0003,216.8712,271.1248,88.9585,-8.0881e-06,-1.89e-06,0.0,0 STARLINK-5092,1 55408U 23014T   23247.62333696 -.00000189  00000-0 -80881-5 0  9998,2 55408  70.0003 216.8712 0002840 271.1248  88.9585 14.98327583 34684,6950.2,96.107,574.039,570.092,0.0
55408.0,STARLINK-5092,PAYLOAD,2023-09-05 00:34:24,14.98333025,0.0002871,70.0002,215.8613,271.0161,89.0669,1.0392e-05,3.1e-07,0.0,0 STARLINK-5092,1 55408U 23014T   23248.02389273  .00000031  00000-0  10392-4 0  9998,2 55408  70.0002 215.8613 0002871 271.0161  89.0669 14.98333025 33805,6950.184,96.107,574.044,570.053,0.0
